OBJECT_NAME,OBJECT_ID,EPOCH,MEAN_MOTION,ECCENTRICITY,INCLINATION,RA_OF_ASC_NODE,ARG_OF_PERICENTER,MEAN_ANOMALY,EPHEMERIS_TYPE,CLASSIFICATION_TYPE,NORAD_CAT_ID,ELEMENT_SET_NO,REV_AT_EPOCH,BSTAR,MEAN_MOTION_DOT,MEAN_MOTION_DDOT
H-2A R/B,2006-002B,2026-06-09T09:47:48.916320,15.17964716,.00496309,98.2555,315.5351,289.4709,70.1164,0,U,28932,999,10834,.25287402E-3,.5218E-4,0
RESURS-DK 1,2006-021A,2026-06-09T07:13:43.558176,15.13181843,.00065391,69.9339,359.9664,298.0089,62.0415,0,U,29228,999,10138,.1255203E-3,.2125E-4,0
CZ-4B R/B,2006-046C,2026-06-09T09:46:36.322176,15.17726210,.00313161,97.5457,205.0384,311.1389,48.7142,0,U,29507,999,7395,.18565526E-3,.3721E-4,0
CZ-2C R/B,2007-010B,2026-06-09T07:27:15.187680,14.20274428,.0059472,98.4091,269.0471,28.9130,331.5321,0,U,31114,999,99272,.52457305E-4,.73E-6,0
COSMO-SKYMED 1,2007-023A,2026-06-09T13:58:32.391840,14.97064798,.00010571,97.8855,352.3753,82.7154,277.4188,0,U,31598,999,2865,.1723219E-3,.1926E-4,0
COSMOS 2428,2007-029A,2026-06-09T06:50:53.264544,14.12929724,.0007215,70.9374,11.0694,150.1446,210.0088,0,U,31792,999,97703,-.66117206E-4,-.171E-5,0
SL-16 R/B,2007-029B,2026-06-09T13:02:47.147136,14.14850879,.00022214,70.9761,339.2968,258.8511,157.2545,0,U,31793,999,97836,.18807521E-3,.315E-5,0
KORONAS-FOTON,2009-003A,2026-06-09T12:05:37.500000,15.45563938,.00108725,82.4293,180.2734,173.1037,187.0363,0,U,33504,999,95991,.20861036E-3,.10084E-3,0
CZ-2C R/B,2011-030B,2026-06-09T11:40:42.074112,14.81452506,.00535689,97.8652,116.0121,52.5644,63.7383,0,U,37731,999,80368,.15845025E-3,.1217E-4,0
H-2A R/B,2012-025E,2026-06-09T12:43:52.347936,14.95673663,.00441982,98.4814,135.0447,14.0133,346.2301,0,U,38341,999,76194,.25420515E-3,.2812E-4,0
SHIJIAN-16 (SJ-16),2013-057A,2026-06-09T14:21:29.500704,14.92592510,.00169196,74.9735,11.0574,248.3317,111.6070,0,U,39358,999,68521,.48197062E-4,.467E-5,0
SL-4 R/B,2014-021B,2026-06-09T13:05:31.801344,15.41791897,.00916069,51.6055,248.2051,78.1861,282.9382,0,U,39679,999,67043,.20446846E-3,.9776E-4,0
ALOS-2,2014-029A,2026-06-08T13:11:42.167040,14.79472067,.00016718,97.9210,256.8376,90.6305,269.5098,0,U,39766,999,65030,.20114351E-3,.1451E-4,0
YAOGAN-29,2015-069A,2026-06-09T14:54:46.613376,14.83078163,.00028782,98.0033,189.2423,65.4433,294.7080,0,U,41038,999,56950,.38164144E-4,.257E-5,0
ASTRO-H (HITOMI),2016-012A,2026-06-09T04:05:41.270784,15.10475751,.00096288,30.9980,125.9593,173.7339,186.3421,0,U,41337,999,56607,.11712381E-3,.2073E-4,0
HXMT (HUIYAN),2017-034A,2026-06-09T15:15:05.247360,15.18425897,.00301893,43.0132,225.0901,97.3392,263.0889,0,U,42758,999,49651,.20964387E-3,.4201E-4,0
SAOCOM 1A,2018-076A,2026-06-09T13:47:45.252384,14.82168840,.00014986,97.8889,347.4342,78.5454,281.5927,0,U,43641,999,41497,.15982226E-4,.75E-6,0
H-2A R/B,2018-084L,2026-06-09T13:13:04.412928,15.44859032,.00241766,98.8594,37.7738,65.7464,294.6302,0,U,43682,999,41994,.39737698E-3,.18755E-3,0
SAOCOM 1B,2020-059A,2026-06-09T14:32:47.628384,14.82164891,.00014629,97.8891,346.5596,81.0273,279.1106,0,U,46265,999,31236,.6668592E-4,.479E-5,0
CSS (TIANHE),2021-035A,2026-06-09T11:45:26.751744,15.60486295,.00084439,41.4694,8.8345,15.7709,344.3391,0,U,48274,999,29196,.2641959E-3,.22144E-3,0
COSMOS 2550,2021-056A,2026-06-08T19:23:25.914048,15.33755463,.0008705,67.1416,125.2525,266.0377,93.9783,0,U,48865,999,27743,.19790476E-3,.631E-4,0
CZ-2C R/B,2022-058K,2026-06-09T10:27:08.924544,15.61324142,.00329769,50.1846,203.8374,235.4973,124.2885,0,U,52794,999,22443,.32951423E-3,.28951E-3,0
CZ-2C R/B,2022-132E,2026-06-09T12:13:20.320608,15.70623780,.00168637,97.2906,167.1957,107.6570,252.6536,0,U,54039,999,20474,.45344404E-3,.56438E-3,0
GSLV R/B,2022-138AN,2026-06-09T10:21:43.432416,14.97222779,.00217094,87.3797,135.5889,170.5161,189.6485,0,U,54149,999,19765,.15888803E-3,.1875E-4,0
XRISM,2023-137A,2026-06-09T09:40:27.430464,15.12397601,.00079402,31.0028,50.0204,246.6719,113.3085,0,U,57800,999,15168,.24465787E-3,.4454E-4,0
ACS3,2024-077B,2026-06-09T12:35:32.090208,13.93925135,.00545256,97.1672,81.0245,68.2906,292.4054,0,U,59588,999,10697,.14427108E-1,.19303E-3,0
CZ-8A R/B,2025-231K,2026-06-09T10:27:32.276736,14.30152760,.01164615,50.0044,72.2936,196.7286,162.9773,0,U,66004,999,3383,.50033836E-4,-.24E-6,0
SZ-21 MODULE,2025-246C,2026-06-08T20:26:08.101824,15.75674541,.00067,41.4714,359.2138,299.9993,60.0186,0,U,66515,999,3242,.25860117E-3,.40731E-3,0
