H-2A R/B                
1 28932U 06002B   26160.40820505  .00005218  00000+0  25287-3 0  9993
2 28932  98.2555 315.5351 0049630 289.4709  70.1164 15.17964716108346
RESURS-DK 1             
1 29228U 06021A   26160.30119859  .00002125  00000+0  12552-3 0  9990
2 29228  69.9339 359.9664 0006539 298.0089  62.0415 15.13181843101381
CZ-4B R/B               
1 29507U 06046C   26160.40736484  .00003721  00000+0  18566-3 0  9991
2 29507  97.5457 205.0384 0031316 311.1389  48.7142 15.17726210 73956
CZ-2C R/B               
1 31114U 07010B   26160.31059245  .00000073  00000+0  52457-4 0  9998
2 31114  98.4091 269.0471 0059472  28.9130 331.5321 14.20274428992723
COSMO-SKYMED 1          
1 31598U 07023A   26160.58231935  .00001926  00000+0  17232-3 0  9994
2 31598  97.8855 352.3753 0001057  82.7154 277.4188 14.97064798 28651
COSMOS 2428             
1 31792U 07029A   26160.28533871 -.00000171  00000+0 -66117-4 0  9997
2 31792  70.9374  11.0694 0007215 150.1446 210.0088 14.12929724977037
SL-16 R/B               
1 31793U 07029B   26160.54360124  .00000315  00000+0  18808-3 0  9997
2 31793  70.9761 339.2968 0002221 258.8511 157.2545 14.14850879978361
KORONAS-FOTON           
1 33504U 09003A   26160.50390625  .00010084  00000+0  20861-3 0  9994
2 33504  82.4293 180.2734 0010872 173.1037 187.0363 15.45563938959910
CZ-2C R/B               
1 37731U 11030B   26160.48659808  .00001217  00000+0  15845-3 0  9995
2 37731  97.8652 116.0121 0053568  52.5644  63.7383 14.81452506803686
H-2A R/B                
1 38341U 12025E   26160.53046699  .00002812  00000+0  25421-3 0  9995
2 38341  98.4814 135.0447 0044198  14.0133 346.2301 14.95673663761943
SHIJIAN-16 (SJ-16)      
1 39358U 13057A   26160.59825811  .00000467  00000+0  48197-4 0  9997
2 39358  74.9735  11.0574 0016919 248.3317 111.6070 14.92592510685213
SL-4 R/B                
1 39679U 14021B   26160.54550696  .00009776  00000+0  20447-3 0  9995
2 39679  51.6055 248.2051 0091606  78.1861 282.9382 15.41791897670439
ALOS-2                  
1 39766U 14029A   26159.54979360  .00001451  00000+0  20114-3 0  9994
2 39766  97.9210 256.8376 0001671  90.6305 269.5098 14.79472067650306
YAOGAN-29               
1 41038U 15069A   26160.62137284  .00000257  00000+0  38164-4 0  9994
2 41038  98.0033 189.2423 0002878  65.4433 294.7080 14.83078163569506
ASTRO-H (HITOMI)        
1 41337U 16012A   26160.17061656  .00002073  00000+0  11712-3 0  9991
2 41337  30.9980 125.9593 0009628 173.7339 186.3421 15.10475751566076
HXMT (HUIYAN)           
1 42758U 17034A   26160.63547740  .00004201  00000+0  20964-3 0  9992
2 42758  43.0132 225.0901 0030189  97.3392 263.0889 15.18425897496515
SAOCOM 1A               
1 43641U 18076A   26160.57482931  .00000075  00000+0  15982-4 0  9994
2 43641  97.8889 347.4342 0001498  78.5454 281.5927 14.82168840414972
H-2A R/B                
1 43682U 18084L   26160.55074552  .00018755  00000+0  39738-3 0  9990
2 43682  98.8594  37.7738 0024176  65.7464 294.6302 15.44859032419949
SAOCOM 1B               
1 46265U 20059A   26160.60610681  .00000479  00000+0  66686-4 0  9997
2 46265  97.8891 346.5596 0001462  81.0273 279.1106 14.82164891312364
CSS (TIANHE)            
1 48274U 21035A   26160.48989296  .00022144  00000+0  26420-3 0  9995
2 48274  41.4694   8.8345 0008443  15.7709 344.3391 15.60486295291961
COSMOS 2550             
1 48865U 21056A   26159.80793882  .00006310  00000+0  19790-3 0  9991
2 48865  67.1416 125.2525 0008705 266.0377  93.9783 15.33755463277435
CZ-2C R/B               
1 52794U 22058K   26160.43551996  .00028951  00000+0  32951-3 0  9998
2 52794  50.1846 203.8374 0032976 235.4973 124.2885 15.61324142224434
CZ-2C R/B               
1 54039U 22132E   26160.50926297  .00056438  00000+0  45344-3 0  9994
2 54039  97.2906 167.1957 0016863 107.6570 252.6536 15.70623780204747
GSLV R/B                
1 54149U 22138AN  26160.43175269  .00001875  00000+0  15889-3 0  9995
2 54149  87.3797 135.5889 0021709 170.5161 189.6485 14.97222779197654
XRISM                   
1 57800U 23137A   26160.40309526  .00004454  00000+0  24466-3 0  9991
2 57800  31.0028  50.0204 0007940 246.6719 113.3085 15.12397601151689
ACS3                    
1 59588U 24077B   26160.52467697  .00019303  00000+0  14427-1 0  9990
2 59588  97.1672  81.0245 0054525  68.2906 292.4054 13.93925135106971
CZ-8A R/B               
1 66004U 25231K   26160.43579024 -.00000024  00000+0  50034-4 0  9990
2 66004  50.0044  72.2936 0116461 196.7286 162.9773 14.30152760 33839
SZ-21 MODULE            
1 66515U 25246C   26159.85148266  .00040731  00000+0  25860-3 0  9993
2 66515  41.4714 359.2138 0006700 299.9993  60.0186 15.75674541 32427
